LEMUR-2-KREMPEL-BRO1    
1 63357U 25061G   26066.15407328  .00006001  00000+0  33548-3 0  9990
2 63357  97.5529  42.7757 0017375 238.6471 121.3060 15.13735613 52194
LEMUR-2-LANGER2SPACE    
1 63358U 25061H   26065.36676160  .00005814  00000+0  32837-3 0  9996
2 63358  97.5532  41.8508 0015200 251.2482 108.7100 15.13414895 52067
LEMUR-2-BALTO           
1 63395U 25052BH  26066.15818058  .00007662  00000+0  63867-3 0  9999
2 63395  97.6984 321.0115 0002593   6.2851 353.8404 14.98886077 53479
