[{"OBJECT_NAME":"LEMUR-2-KREMPEL-BRO1","OBJECT_ID":"2025-061G","EPOCH":"2026-03-07T03:41:51.931392","MEAN_MOTION":15.13735613,"ECCENTRICITY":0.0017375,"INCLINATION":97.5529,"RA_OF_ASC_NODE":42.7757,"ARG_OF_PERICENTER":238.6471,"MEAN_ANOMALY":121.306,"EPHEMERIS_TYPE":0,"CLASSIFICATION_TYPE":"U","NORAD_CAT_ID":63357,"ELEMENT_SET_NO":999,"REV_AT_EPOCH":5219,"BSTAR":0.00033548,"MEAN_MOTION_DOT":6.001e-5,"MEAN_MOTION_DDOT":0},{"OBJECT_NAME":"LEMUR-2-LANGER2SPACE","OBJECT_ID":"2025-061H","EPOCH":"2026-03-06T08:48:08.202240","MEAN_MOTION":15.13414895,"ECCENTRICITY":0.00152001,"INCLINATION":97.5532,"RA_OF_ASC_NODE":41.8508,"ARG_OF_PERICENTER":251.2482,"MEAN_ANOMALY":108.71,"EPHEMERIS_TYPE":0,"CLASSIFICATION_TYPE":"U","NORAD_CAT_ID":63358,"ELEMENT_SET_NO":999,"REV_AT_EPOCH":5206,"BSTAR":0.00032836821,"MEAN_MOTION_DOT":5.814e-5,"MEAN_MOTION_DDOT":0},{"OBJECT_NAME":"LEMUR-2-BALTO","OBJECT_ID":"2025-052BH","EPOCH":"2026-03-07T03:47:46.802112","MEAN_MOTION":14.98886077,"ECCENTRICITY":0.0002593,"INCLINATION":97.6984,"RA_OF_ASC_NODE":321.0115,"ARG_OF_PERICENTER":6.2851,"MEAN_ANOMALY":353.8404,"EPHEMERIS_TYPE":0,"CLASSIFICATION_TYPE":"U","NORAD_CAT_ID":63395,"ELEMENT_SET_NO":999,"REV_AT_EPOCH":5347,"BSTAR":0.00063867,"MEAN_MOTION_DOT":7.662e-5,"MEAN_MOTION_DDOT":0}]
